     2.100          NAVIGATION                              RINEX VERSION / TYPE
fic2rin                                 06/26/2011 00:08:40 PGM / RUN BY / DATE
                                                            END OF HEADER
32 11  6 25 16  0  0.0 -.279911328107D-03 -.716227077646D-11  .000000000000D+00
     .980000000000D+02  .994062500000D+02  .458126225653D-08  .300732644628D+01
     .502727925777D-05  .121568312170D-01  .668317079544D-05  .515365048790D+04
     .576000000000D+06  .204890966415D-07 -.237907765082D+00  .221654772758D-06
     .954927150812D+00  .241250000000D+03 -.774642554149D+00 -.799283293357D-08
     .184293390845D-09  .100000000000D+01  .164100000000D+04  .000000000000D+00
     .340000000000D+01  .000000000000D+00 -.279396772385D-08  .980000000000D+02
     .568806000000D+06  .400000000000D+01
 1 11  6 25 15 59 28.0  .936295837164D-04  .250111042988D-11  .000000000000D+00
     .100000000000D+01 -.187187500000D+02  .464483633322D-08  .554848566116D+00
    -.989064574242D-06  .111959163332D-01  .867992639542D-05  .515377175331D+04
     .575968000000D+06 -.173225998878D-06  .271592980997D+01 -.298023223877D-07
     .955850449614D+00  .212750000000D+03  .149810873020D+01 -.823462871962D-08
     .135362781260D-09  .100000000000D+01  .164100000000D+04  .000000000000D+00
     .240000000000D+01  .630000000000D+02 -.419095158577D-08  .100000000000D+01
     .569076000000D+06  .400000000000D+01
32 11  6 25 15 59 44.0 -.279915984720D-03 -.716227077646D-11  .000000000000D+00
     .000000000000D+00  .994062500000D+02  .458126225653D-08  .300499283593D+01
     .502727925777D-05  .121568345930D-01  .668317079544D-05  .515365049934D+04
     .575984000000D+06  .204890966415D-07 -.237907648048D+00  .221654772758D-06
     .954927137645D+00  .241250000000D+03 -.774642769198D+00 -.799283293357D-08
     .184293390845D-09  .100000000000D+01  .164100000000D+04  .000000000000D+00
     .240000000000D+01  .000000000000D+00 -.279396772385D-08  .000000000000D+00
     .569256000000D+06  .400000000000D+01
27 11  6 25 15 59 44.0  .278512481600D-03  .375166564481D-11  .000000000000D+00
     .300000000000D+01 -.521875000000D+02  .407981279772D-08 -.160040763638D+01
    -.238418579102D-05  .215676897205D-01  .717677175999D-05  .515366235352D+04
     .575984000000D+06 -.374391674995D-06  .172468435001D+01  .448897480965D-06
     .980955965668D+00  .254843750000D+03 -.123775661993D+01 -.792175854447D-08
    -.111076055335D-09  .100000000000D+01  .164100000000D+04  .000000000000D+00
     .240000000000D+01  .000000000000D+00 -.419095158577D-08  .300000000000D+01
     .570516000000D+06  .400000000000D+01
30 11  6 25 15 59 44.0  .158399343491D-04  .466116034659D-11  .000000000000D+00
     .000000000000D+00 -.166250000000D+02  .451733102211D-08 -.135675531385D+01
    -.741332769394D-06  .128525720211D-01  .838935375214D-05  .515368719864D+04
     .575984000000D+06 -.104308128357D-06  .277454120442D+01  .331550836563D-06
     .961241228127D+00  .217250000000D+03  .153334065443D+01 -.807212195057D-08
     .195008122871D-09  .100000000000D+01  .164100000000D+04  .000000000000D+00
     .485000000000D+01  .630000000000D+02 -.838190317154D-08  .000000000000D+00
     .571416000000D+06  .400000000000D+01
 9 11  6 25 15 59 44.0  .887061469257D-04  .250111042988D-11  .000000000000D+00
     .150000000000D+02 -.649375000000D+02  .396516516504D-08  .160241898051D+01
    -.378862023354D-05  .174296533223D-01  .668689608574D-05  .515367018509D+04
     .575984000000D+06  .763684511185D-07  .175068780080D+01 -.417232513428D-06
     .983396651378D+00  .262906250000D+03  .157869932332D+01 -.776139472182D-08
    -.975040614355D-10  .100000000000D+01  .164100000000D+04  .000000000000D+00
     .240000000000D+01  .000000000000D+00 -.558793544769D-08  .150000000000D+02
     .572496000000D+06  .400000000000D+01
24 11  6 25 15 59 44.0  .401456374675D-03  .318323145621D-11  .000000000000D+00
     .000000000000D+00  .190937500000D+02  .463947896721D-08 -.301267933229D+01
     .112503767014D-05  .628979608882D-02  .988878309727D-05  .515370308685D+04
     .575984000000D+06 -.633299350739D-07 -.131804548182D+01  .372529029846D-08
     .947889650266D+00  .179687500000D+03 -.264884302157D+00 -.794711674360D-08
    -.190007914592D-09  .100000000000D+01  .164100000000D+04  .000000000000D+00
     .240000000000D+01  .000000000000D+00 -.139698386192D-08  .000000000000D+00
     .573486000000D+06  .400000000000D+01
15 11  6 25 15 59 44.0 -.119481235743D-03  .227373675443D-11  .000000000000D+00
     .200000000000D+01  .175625000000D+02  .501092301077D-08 -.186111001898D+01
     .713393092155D-06  .342639302835D-02  .344403088093D-05  .515363582611D+04
     .575984000000D+06  .242143869400D-07  .702910496141D+00 -.128522515297D-06
     .949731012086D+00  .308687500000D+03 -.527365670668D-01 -.846320966951D-08
     .300012496725D-10  .100000000000D+01  .164100000000D+04  .000000000000D+00
     .240000000000D+01  .000000000000D+00 -.102445483208D-07  .200000000000D+01
     .573786000000D+06  .400000000000D+01
 2 11  6 25 15 59 44.0  .343512743711D-03  .193267624127D-11  .000000000000D+00
     .600000000000D+01  .000000000000D+00  .480484299814D-08 -.245021594841D+01
     .186264514923D-07  .103311577113D-01  .932812690735D-05  .515377518272D+04
     .575984000000D+06 -.122934579849D-06 -.138881697318D+01 -.115483999252D-06
     .938576484095D+00  .188750000000D+03 -.297298683039D+01 -.801604818630D-08
    -.114290474943D-09  .100000000000D+01  .164100000000D+04  .000000000000D+00
     .240000000000D+01  .000000000000D+00 -.172294676304D-07  .600000000000D+01
     .574626000000D+06  .400000000000D+01
 8 11  6 25 15 59 44.0  .831019133329D-05  .113686837722D-12  .000000000000D+00
     .800000000000D+01 -.673125000000D+02  .378408619381D-08  .180550470759D+01
    -.324100255966D-05  .116901935544D-01  .761449337006D-05  .515358854103D+04
     .575984000000D+06  .558793544769D-08  .185509627143D+01  .236555933952D-06
     .996256998903D+00  .255000000000D+03 -.307238211629D+01 -.772960768347D-08
    -.197151069276D-09  .100000000000D+01  .164100000000D+04  .000000000000D+00
     .240000000000D+01  .000000000000D+00 -.419095158577D-08  .800000000000D+01
     .575886000000D+06  .400000000000D+01
 2 11  6 25 17 59 44.0  .343526247889D-03  .193267624127D-11  .000000000000D+00
     .700000000000D+01 -.303125000000D+01  .484984487265D-08 -.140016210770D+01
    -.171363353729D-06  .103314942680D-01  .912882387638D-05  .515377372169D+04
     .583184000000D+06 -.409781932831D-07 -.138887446879D+01 -.273808836937D-06
     .938575577086D+00  .193375000000D+03 -.297291928015D+01 -.804390648956D-08
    -.190365072327D-09  .100000000000D+01  .164100000000D+04  .000000000000D+00
     .240000000000D+01  .000000000000D+00 -.172294676304D-07  .700000000000D+01
     .576006000000D+06  .400000000000D+01
 8 11  6 25 17 59 44.0  .831112265587D-05  .113686837722D-12  .000000000000D+00
     .290000000000D+02 -.772187500000D+02  .366015246004D-08  .285561772042D+01
    -.388361513615D-05  .116898168344D-01  .803731381893D-05  .515359078979D+04
     .583184000000D+06 -.201165676117D-06  .185504025337D+01 -.223517417908D-07
     .996257093993D+00  .246406250000D+03 -.307226877964D+01 -.750495546866D-08
    -.207151485834D-10  .100000000000D+01  .164100000000D+04  .000000000000D+00
     .240000000000D+01  .000000000000D+00 -.419095158577D-08  .290000000000D+02
     .576006000000D+06  .400000000000D+01
 9 11  6 25 17 59 44.0  .887243077159D-04  .250111042988D-11  .000000000000D+00
     .210000000000D+02 -.739375000000D+02  .399266631058D-08  .265263580785D+01
    -.386312603951D-05  .174305150285D-01  .637583434582D-05  .515366830826D+04
     .583184000000D+06  .210478901863D-06  .175063341389D+01 -.158324837685D-06
     .983396448032D+00  .265156250000D+03  .157866134743D+01 -.756710091441D-08
    -.153577825704D-09  .100000000000D+01  .164100000000D+04  .000000000000D+00
     .240000000000D+01  .000000000000D+00 -.558793544769D-08  .210000000000D+02
     .576006000000D+06  .400000000000D+01
15 11  6 25 17 59 44.0 -.119465403259D-03  .216004991671D-11  .000000000000D+00
     .300000000000D+01  .198437500000D+02  .496092092798D-08 -.811104058105D+00
     .949949026108D-06  .342619605362D-02  .292621552944D-05  .515363447189D+04
     .583184000000D+06  .502914190292D-07  .702849283260D+00 -.428408384323D-07
     .949731505089D+00  .313343750000D+03 -.525345761160D-01 -.847035282419D-08
     .825034365993D-10  .100000000000D+01  .164100000000D+04  .000000000000D+00
     .240000000000D+01  .000000000000D+00 -.102445483208D-07  .300000000000D+01
     .576006000000D+06  .400000000000D+01
24 11  6 25 17 59 44.0  .401478726417D-03  .318323145621D-11  .000000000000D+00
     .100000000000D+02  .219375000000D+02  .456018995022D-08 -.196245734084D+01
     .111572444439D-05  .628915708512D-02  .986084342003D-05  .515370443726D+04
     .583184000000D+06 -.633299350739D-07 -.131810278285D+01 -.186264514923D-07
     .947888251716D+00  .184656250000D+03 -.264943314810D+00 -.796033157976D-08
    -.183579075377D-09  .100000000000D+01  .164100000000D+04  .000000000000D+00
     .240000000000D+01  .000000000000D+00 -.139698386192D-08  .100000000000D+02
     .576006000000D+06  .400000000000D+01
27 11  6 25 17 59 44.0  .278539955616D-03  .375166564481D-11  .000000000000D+00
     .760000000000D+02 -.648125000000D+02  .420981821297D-08 -.550290384020D+00
    -.350363552570D-05  .215665502474D-01  .702030956745D-05  .515365880585D+04
     .583184000000D+06 -.307336449623D-06  .172462417288D+01 -.558793544769D-07
     .980954815814D+00  .260093750000D+03 -.123768712693D+01 -.827070165078D-08
     .839320675361D-10  .100000000000D+01  .164100000000D+04  .000000000000D+00
     .240000000000D+01  .000000000000D+00 -.419095158577D-08  .760000000000D+02
     .576006000000D+06  .400000000000D+01
